     2.11           N: GPS NAV DATA                         RINEX VERSION / TYPE
teqc  2019Feb25                         20221121 12:25:34UTCPGM / RUN BY / DATE
OSX ker:10.11.6|Core i5|gcc 4.3 -m64|OSX ker:10.10+|=+      COMMENT
    4.6566D-09  1.4901D-08 -5.9605D-08 -5.9605D-08          ION ALPHA
    7.9872D+04  6.5536D+04 -6.5536D+04 -3.9322D+05          ION BETA
   -9.313225746155D-10 2.664535259100D-15   589824     1541 DELTA-UTC: A0,A1,T,W
                                                            END OF HEADER
 9 09  7 24 23 59 44.0 6.830459460616D-05 2.046363078989D-12 0.000000000000D+00
    2.000000000000D+00 6.725000000000D+01 4.493401453921D-09-3.338142268967D-01
    3.453344106674D-06 2.074918802828D-02 5.459412932396D-06 5.153626708984D+03
    5.183840000000D+05-2.346932888031D-07 1.707583961189D+00 1.192092895508D-07
    9.767494646901D-01 2.910000000000D+02 1.497275343802D+00-8.604286974518D-09
    5.921675232971D-10 1.000000000000D+00 1.541000000000D+03 0.000000000000D+00
    2.000000000000D+00 0.000000000000D+00-5.587935447693D-09 2.000000000000D+00
    5.179920000000D+05 4.000000000000D+00
19 09  7 24 23 59 44.0 1.781713217497D-05-1.477928890381D-12 0.000000000000D+00
    7.000000000000D+00-2.125000000000D+00 4.549118060456D-09 2.734740521194D+00
   -1.303851604462D-08 5.772699252702D-03 1.286156475544D-05 5.153639768600D+03
    5.183840000000D+05-1.117587089539D-07-2.374351632522D+00 1.341104507446D-07
    9.576456417392D-01 1.303125000000D+02-3.148182253970D-01-7.866041937935D-09
    2.146517982518D-10 1.000000000000D+00 1.541000000000D+03 0.000000000000D+00
    2.000000000000D+00 0.000000000000D+00-1.443549990654D-08 7.000000000000D+00
    5.112180000000D+05 4.000000000000D+00
